{
  "_comment": "Зоны доставки (полигоны из Яндекс.Конструктора). Прайсинг в properties. Координаты GeoJSON идут как [долгота, широта]; сервис нормализует в [lat, lon]. Порядок features = приоритет: первая совпавшая зона выигрывает, поэтому Центр (вложенный) держим ВЫШЕ Окраины. freeFrom отсутствует у Окраины — доставка там всегда платная.",
  "type": "FeatureCollection",
  "metadata": {"name": "зоны доставки", "creator": "Yandex Map Constructor"},
  "features": [
    {
      "type": "Feature",
      "id": 0,
      "properties": {
        "name": "Центр",
        "deliveryCost": 200,
        "minOrder": 800,
        "freeFrom": 2000,
        "etaMinutes": 50,
        "description": "Город, центр, доставка 200 руб., бесплатно от 2000 руб., заказ от 800 руб., время 50 минут.",
        "fill": "#ed4543",
        "fill-opacity": 0.6,
        "stroke": "#ed4543",
        "stroke-width": "5",
        "stroke-opacity": 0.9
      },
      "geometry": {
        "type": "Polygon",
        "coordinates": [
          [
            [50.79553116147519, 61.684919975014814],
            [50.788063319714794, 61.670554417829415],
            [50.81192425111127, 61.63512663174834],
            [50.87810028378966, 61.6570186492975],
            [50.841536410498634, 61.68540924633973],
            [50.79553116147519, 61.684919975014814]
          ]
        ]
      }
    },
    {
      "type": "Feature",
      "id": 1,
      "properties": {
        "name": "Окраина",
        "deliveryCost": 300,
        "minOrder": 1000,
        "etaMinutes": 90,
        "description": "Орбита, лесозавод, Кочпон, Чит, Выльгорт. Доставка 300 руб., всегда платно, заказ от 1000 руб., время - 90 минут.",
        "fill": "#ed4543",
        "fill-opacity": 0.6,
        "stroke": "#ed4543",
        "stroke-width": "5",
        "stroke-opacity": 0.9
      },
      "geometry": {
        "type": "Polygon",
        "coordinates": [
          [
            [50.7803385577518, 61.71877351630533],
            [50.70212020548626, 61.609712260599835],
            [50.78828950541784, 61.59894959982035],
            [50.83669801371869, 61.62473838684405],
            [50.912829834397456, 61.65026072463951],
            [50.907196315320135, 61.66133405373827],
            [50.802912028821126, 61.722886776974065],
            [50.7803385577518, 61.71877351630533]
          ]
        ]
      }
    }
  ]
}
